{
  "links" : {
    "next" : "https://api.nasa.gov/neo/rest/v1/feed?start_date=2016-07-23&end_date=2016-07-23&detailed=true&api_key=t0TVs3DtDT2H8Oy2Zy8m2eVrNsAVKAexjcZXUckd",
    "prev" : "https://api.nasa.gov/neo/rest/v1/feed?start_date=2016-07-21&end_date=2016-07-21&detailed=true&api_key=t0TVs3DtDT2H8Oy2Zy8m2eVrNsAVKAexjcZXUckd",
    "self" : "https://api.nasa.gov/neo/rest/v1/feed?start_date=2016-07-22&end_date=2016-07-22&detailed=true&api_key=t0TVs3DtDT2H8Oy2Zy8m2eVrNsAVKAexjcZXUckd"
  },
  "element_count" : 18,
  "near_earth_objects" : {
    "2016-07-22" : [ {
      "links" : {
        "self" : "https://api.nasa.gov/neo/rest/v1/neo/2154244?api_key=t0TVs3DtDT2H8Oy2Zy8m2eVrNsAVKAexjcZXUckd"
      },
      "neo_reference_id" : "2154244",
      "name" : "154244 (2002 KL6)",
      "nasa_jpl_url" : "http://ssd.jpl.nasa.gov/sbdb.cgi?sstr=2154244",
      "absolute_magnitude_h" : 17.5,
      "estimated_diameter" : {
        "kilometers" : {
          "estimated_diameter_min" : 0.8405334021,
          "estimated_diameter_max" : 1.8794898244
        },
        "meters" : {
          "estimated_diameter_min" : 840.5334020728,
          "estimated_diameter_max" : 1879.4898243938
        },
        "miles" : {
          "estimated_diameter_min" : 0.5222830806,
          "estimated_diameter_max" : 1.1678604717
        },
        "feet" : {
          "estimated_diameter_min" : 2757.6556068564,
          "estimated_diameter_max" : 6166.3053954643
        }
      },
      "is_potentially_hazardous_asteroid" : false,
      "close_approach_data" : [ {
        "close_approach_date" : "2016-07-22",
        "epoch_date_close_approach" : 1469170800000,
        "relative_velocity" : {
          "kilometers_per_second" : "7.2992628469",
          "kilometers_per_hour" : "26277.3462488728",
          "miles_per_hour" : "16327.721062251"
        },
        "miss_distance" : {
          "astronomical" : "0.0683752338",
          "lunar" : "26.5979671478",
          "kilometers" : "10228790",
          "miles" : "6355875.5"
        },
        "orbiting_body" : "Earth"
      } ],
      "orbital_data" : {
        "orbit_id" : "253",
        "orbit_determination_date" : "2017-04-06 09:27:00",
        "orbit_uncertainty" : "0",
        "minimum_orbit_intersection" : ".0636542",
        "jupiter_tisserand_invariant" : "3.367",
        "epoch_osculation" : "2458000.5",
        "eccentricity" : ".5484018822965251",
        "semi_major_axis" : "2.306718529428724",
        "inclination" : "3.246143241153584",
        "ascending_node_longitude" : "213.2863017826745",
        "orbital_period" : "1279.647443089683",
        "perihelion_distance" : "1.041709745961739",
        "perihelion_argument" : "98.0395632854609",
        "aphelion_distance" : "3.571727312895709",
        "perihelion_time" : "2457601.275168722771",
        "mean_anomaly" : "112.3129187151667",
        "mean_motion" : ".2813274874607551",
        "equinox" : "J2000"
      }
    }, {
      "links" : {
        "self" : "https://api.nasa.gov/neo/rest/v1/neo/3312033?api_key=t0TVs3DtDT2H8Oy2Zy8m2eVrNsAVKAexjcZXUckd"
      },
      "neo_reference_id" : "3312033",
      "name" : "(2006 AK8)",
      "nasa_jpl_url" : "http://ssd.jpl.nasa.gov/sbdb.cgi?sstr=3312033",
      "absolute_magnitude_h" : 21.2,
      "estimated_diameter" : {
        "kilometers" : {
          "estimated_diameter_min" : 0.1529519353,
          "estimated_diameter_max" : 0.3420109247
        },
        "meters" : {
          "estimated_diameter_min" : 152.9519353442,
          "estimated_diameter_max" : 342.0109247198
        },
        "miles" : {
          "estimated_diameter_min" : 0.095039897,
          "estimated_diameter_max" : 0.2125156703
        },
        "feet" : {
          "estimated_diameter_min" : 501.8108275547,
          "estimated_diameter_max" : 1122.0831222578
        }
      },
      "is_potentially_hazardous_asteroid" : false,
      "close_approach_data" : [ {
        "close_approach_date" : "2016-07-22",
        "epoch_date_close_approach" : 1469170800000,
        "relative_velocity" : {
          "kilometers_per_second" : "14.2805780601",
          "kilometers_per_hour" : "51410.0810163902",
          "miles_per_hour" : "31944.2250626565"
        },
        "miss_distance" : {
          "astronomical" : "0.2809900862",
          "lunar" : "109.3051452637",
          "kilometers" : "42035520",
          "miles" : "26119662"
        },
        "orbiting_body" : "Earth"
      } ],
      "orbital_data" : {
        "orbit_id" : "20",
        "orbit_determination_date" : "2016-07-12 06:16:29",
        "orbit_uncertainty" : "0",
        "minimum_orbit_intersection" : ".109607",
        "jupiter_tisserand_invariant" : "5.316",
        "epoch_osculation" : "2457600.5",
        "eccentricity" : ".1224300066361258",
        "semi_major_axis" : "1.157034097103852",
        "inclination" : "28.94828137810144",
        "ascending_node_longitude" : "118.5841151778075",
        "orbital_period" : "454.587681732057",
        "perihelion_distance" : "1.015378404917204",
        "perihelion_argument" : "72.06262379211482",
        "aphelion_distance" : "1.298689789290501",
        "perihelion_time" : "2457457.326683237953",
        "mean_anomaly" : "113.3827336410694",
        "mean_motion" : ".7919264301846859",
        "equinox" : "J2000"
      }
    }, {
      "links" : {
        "self" : "https://api.nasa.gov/neo/rest/v1/neo/3550307?api_key=t0TVs3DtDT2H8Oy2Zy8m2eVrNsAVKAexjcZXUckd"
      },
      "neo_reference_id" : "3550307",
      "name" : "(2010 VM1)",
      "nasa_jpl_url" : "http://ssd.jpl.nasa.gov/sbdb.cgi?sstr=3550307",
      "absolute_magnitude_h" : 20.2,
      "estimated_diameter" : {
        "kilometers" : {
          "estimated_diameter_min" : 0.2424124811,
          "estimated_diameter_max" : 0.5420507863
        },
        "meters" : {
          "estimated_diameter_min" : 242.4124811008,
          "estimated_diameter_max" : 542.0507863358
        },
        "miles" : {
          "estimated_diameter_min" : 0.1506280858,
          "estimated_diameter_max" : 0.3368146392
        },
        "feet" : {
          "estimated_diameter_min" : 795.3165644948,
          "estimated_diameter_max" : 1778.3819018419
        }
      },
      "is_potentially_hazardous_asteroid" : false,
      "close_approach_data" : [ {
        "close_approach_date" : "2016-07-22",
        "epoch_date_close_approach" : 1469170800000,
        "relative_velocity" : {
          "kilometers_per_second" : "4.6628868482",
          "kilometers_per_hour" : "16786.3926535183",
          "miles_per_hour" : "10430.4115907375"
        },
        "miss_distance" : {
          "astronomical" : "0.2222474371",
          "lunar" : "86.4542541504",
          "kilometers" : "33247744",
          "miles" : "20659190"
        },
        "orbiting_body" : "Earth"
      } ],
      "orbital_data" : {
        "orbit_id" : "22",
        "orbit_determination_date" : "2016-06-16 06:17:07",
        "orbit_uncertainty" : "0",
        "minimum_orbit_intersection" : ".17807",
        "jupiter_tisserand_invariant" : "3.607",
        "epoch_osculation" : "2457600.5",
        "eccentricity" : ".4422808776098721",
        "semi_major_axis" : "2.104500788922056",
        "inclination" : "5.824908324467081",
        "ascending_node_longitude" : "167.5601194962373",
        "orbital_period" : "1115.121184004296",
        "perihelion_distance" : "1.173720333066941",
        "perihelion_argument" : "129.1582544308553",
        "aphelion_distance" : "3.035281244777172",
        "perihelion_time" : "2457581.289162307846",
        "mean_anomaly" : "6.201928246346363",
        "mean_motion" : ".3228348677829558",
        "equinox" : "J2000"
      }
    } ]
  }
}